{"type": "FeatureCollection", "features": [ {"type": "Feature", "properties": {"norad_id": 66911, "name": "1998-067XX", "group": "stations", "lat": -4.469417207305457, "lon": -41.54421920004644, "alt_km": 408.6279808947547, "timestamp": "2025-12-14T05:42:17.221346+00:00", "meta": {"OBJECT_NAME": "1998-067XX", "OBJECT_ID": "1998-067XX", "EPOCH": "2025-12-13T16:32:49.998912", "MEAN_MOTION": 15.52189321, "ECCENTRICITY": 0.00048024, "INCLINATION": 51.6299, "RA_OF_ASC_NODE": 137.6321, "ARG_OF_PERICENTER": 215.3057, "MEAN_ANOMALY": 144.7616, "EPHEMERIS_TYPE": 0, "CLASSIFICATION_TYPE": "U", "NORAD_CAT_ID": 66911, "ELEMENT_SET_NO": 999, "REV_AT_EPOCH": 175, "BSTAR": 0.0012499181, "MEAN_MOTION_DOT": 0.00077443, "MEAN_MOTION_DDOT": 0}, "tle": {"line1": "1 66911U 98067XX  25347.68946758  .00077443  00000+0  12499-2 0  9998", "line2": "2 66911  51.6299 137.6321 0004802 215.3057 144.7616 15.52189321  1756"}}, "geometry": {"type": "Point", "coordinates": [-41.54421920004644, -4.469417207305457]}}, {"type": "Feature", "properties": {"norad_id": 66912, "name": "1998-067XY", "group": "stations", "lat": 16.220384623062134, "lon": -58.36569323945705, "alt_km": 410.33489606371404, "timestamp": "2025-12-14T05:42:17.221357+00:00", "meta": {"OBJECT_NAME": "1998-067XY", "OBJECT_ID": "1998-067XY", "EPOCH": "2025-12-13T16:39:11.573280", "MEAN_MOTION": 15.51258263, "ECCENTRICITY": 0.00045018, "INCLINATION": 51.6303, "RA_OF_ASC_NODE": 137.6613, "ARG_OF_PERICENTER": 228.8979, "MEAN_ANOMALY": 131.1622, "EPHEMERIS_TYPE": 0, "CLASSIFICATION_TYPE": "U", "NORAD_CAT_ID": 66912, "ELEMENT_SET_NO": 999, "REV_AT_EPOCH": 175, "BSTAR": 0.00089167001, "MEAN_MOTION_DOT": 0.00053126, "MEAN_MOTION_DDOT": 0}, "tle": {"line1": "1 66912U 98067XY  25347.69388395  .00053126  00000+0  89167-3 0  9996", "line2": "2 66912  51.6303 137.6613 0004501 228.8979 131.1622 15.51258263  1753"}}, "geometry": {"type": "Point", "coordinates": [-58.36569323945705, 16.220384623062134]}}]}